     2.100          NAVIGATION                              RINEX VERSION / TYPE
fic2rin                                 12/24/2013 00:24:58 PGM / RUN BY / DATE
                                                            END OF HEADER
13 13 12 23  4  0  0.0  .473018735647D-04 -.375166564481D-11  .000000000000D+00
     .230000000000D+02 -.190625000000D+01  .419410327266D-08 -.669546691959D+00
    -.344589352608D-06  .509493891150D-02  .781193375587D-05  .515365999985D+04
     .100800000000D+06 -.409781932831D-07 -.302646854063D+01 -.484287738800D-07
     .979600759321D+00  .240750000000D+03  .219196102338D+01 -.794175937758D-08
    -.236438420038D-09  .100000000000D+01  .177200000000D+04  .000000000000D+00
     .240000000000D+01  .000000000000D+00 -.111758708954D-07  .230000000000D+02
     .936060000000D+05  .400000000000D+01
14 13 12 23  4  0  0.0  .206985045224D-03 -.113686837722D-11  .000000000000D+00
     .800000000000D+02 -.375000000000D+01  .446197157331D-08 -.388730031343D+00
    -.178813934326D-06  .731026951689D-02  .802427530289D-05  .515359784698D+04
     .100800000000D+06 -.428408384323D-07 -.305719940972D+01  .856816768646D-07
     .972201827308D+00  .234656250000D+03 -.198603619509D+01 -.810855203945D-08
    -.318941856637D-09  .100000000000D+01  .177200000000D+04  .000000000000D+00
     .240000000000D+01  .000000000000D+00 -.884756445885D-08  .800000000000D+02
     .936060000000D+05  .400000000000D+01
15 13 12 23  4  0  0.0 -.153674744070D-03 -.204636307899D-11  .000000000000D+00
     .410000000000D+02 -.828125000000D+01  .518200156545D-08 -.903205876687D+00
    -.486150383949D-06  .602507614531D-02  .688992440701D-05  .515361606979D+04
     .100800000000D+06  .838190317154D-07  .311921110417D+01 -.484287738800D-07
     .938756962836D+00  .230437500000D+03  .210441905316D+00 -.839320675361D-08
    -.270725562521D-09  .100000000000D+01  .177200000000D+04  .000000000000D+00
     .240000000000D+01  .000000000000D+00 -.102445483208D-07  .410000000000D+02
     .936060000000D+05  .400000000000D+01
17 13 12 23  4  0  0.0 -.525256618857D-04 -.341060513165D-11  .000000000000D+00
     .790000000000D+02 -.731250000000D+02  .447518640948D-08 -.208329302392D+00
    -.378862023354D-05  .891196797602D-02  .669807195663D-05  .515372140503D+04
     .100800000000D+06 -.242143869400D-07  .527824046790D-01  .987201929092D-07
     .967583652406D+00  .255375000000D+03 -.216416086050D+01 -.824427197845D-08
    -.222509268404D-09  .100000000000D+01  .177200000000D+04  .000000000000D+00
     .340000000000D+01  .000000000000D+00 -.107102096081D-07  .790000000000D+02
     .936060000000D+05  .400000000000D+01
18 13 12 23  4  0  0.0  .291956588626D-03  .204636307899D-11  .000000000000D+00
     .190000000000D+02  .350312500000D+02  .563559188788D-08  .136243092690D+01
     .177882611752D-05  .145932463929D-01  .633485615253D-05  .515365274239D+04
     .100800000000D+06 -.305473804474D-06  .210044837604D+01 -.186264514923D-07
     .926068167325D+00  .239531250000D+03 -.206722654805D+01 -.878322299935D-08
     .171078554680D-09  .100000000000D+01  .177200000000D+04  .000000000000D+00
     .240000000000D+01  .000000000000D+00 -.111758708954D-07  .190000000000D+02
     .936060000000D+05  .400000000000D+01
19 13 12 23  4  0  0.0 -.427231658250D-03 -.250111042988D-11  .000000000000D+00
     .760000000000D+02 -.799687500000D+02  .441339812146D-08 -.107172443975D+01
    -.418536365032D-05  .970253814012D-02  .691041350365D-05  .515377292442D+04
     .100800000000D+06  .270083546638D-06  .104067103087D+00 -.121071934700D-06
     .964740912920D+00  .248406250000D+03  .399347605494D+00 -.805462122159D-08
    -.212508851847D-09  .100000000000D+01  .177200000000D+04  .000000000000D+00
     .240000000000D+01  .000000000000D+00 -.149011611938D-07  .760000000000D+02
     .936060000000D+05  .400000000000D+01
20 13 12 23  4  0  0.0  .146837439388D-03  .306954461848D-11  .000000000000D+00
     .550000000000D+02  .350937500000D+02  .541379693494D-08  .184835670732D+01
     .179186463356D-05  .592678366229D-02  .641867518425D-05  .515361129951D+04
     .100800000000D+06 -.298023223877D-07  .204720646147D+01 -.162050127983D-06
     .926942102882D+00  .236500000000D+03  .129626871004D+01 -.849178228825D-08
     .237509893240D-09  .100000000000D+01  .177200000000D+04  .000000000000D+00
     .240000000000D+01  .000000000000D+00 -.791624188423D-08  .550000000000D+02
     .936060000000D+05  .400000000000D+01
21 13 12 23  4  0  0.0 -.334308948368D-03 -.170530256582D-11  .000000000000D+00
     .880000000000D+02 -.262500000000D+02  .486270255108D-08  .240042890800D+01
    -.152364373207D-05  .207919921959D-01  .112485140562D-04  .515358832741D+04
     .100800000000D+06  .128522515297D-06  .105392342581D+01 -.340864062309D-06
     .931776530724D+00  .142531250000D+03 -.208064169556D+01 -.783675500373D-08
     .212151694112D-09  .100000000000D+01  .177200000000D+04  .000000000000D+00
     .240000000000D+01  .000000000000D+00 -.111758708954D-07  .880000000000D+02
     .936060000000D+05  .400000000000D+01
23 13 12 23  4  0  0.0  .191340222955D-04 -.329691829393D-11  .000000000000D+00
     .780000000000D+02 -.409375000000D+01  .478127058768D-08 -.142007403636D+01
    -.409781932831D-06  .884990929626D-02  .677444040775D-05  .515361501503D+04
     .100800000000D+06  .968575477600D-07 -.311968141477D+01 -.121071934700D-06
     .953790176732D+00  .241937500000D+03 -.280827130574D+01 -.815176812529D-08
    -.168578450541D-09  .100000000000D+01  .177200000000D+04  .000000000000D+00
     .240000000000D+01  .000000000000D+00 -.200234353542D-07  .780000000000D+02
     .936060000000D+05  .400000000000D+01
24 13 12 23  4  0  0.0 -.202888622880D-04 -.682121026330D-12  .000000000000D+00
     .410000000000D+02  .506562500000D+02  .448554398377D-08 -.194930233821D+01
     .251457095146D-05  .156581995543D-02  .939145684242D-05  .515364044189D+04
     .100800000000D+06  .186264514923D-08 -.209314445763D+01 -.521540641785D-07
     .957884351934D+00  .197468750000D+03  .984346080822D-01 -.803247744207D-08
     .357157734196D-10  .100000000000D+01  .177200000000D+04  .000000000000D+00
     .240000000000D+01  .000000000000D+00  .279396772385D-08  .410000000000D+02
     .936060000000D+05  .400000000000D+01
25 13 12 23  4  0  0.0  .426592305303D-05  .261479726760D-11  .000000000000D+00
     .980000000000D+02  .271875000000D+02  .445054252582D-08  .207120847502D+01
     .136531889439D-05  .288071017712D-02  .407360494137D-05  .515367764282D+04
     .100800000000D+06 -.763684511185D-07 -.104026389345D+01 -.186264514923D-07
     .974862225759D+00  .307281250000D+03  .636422632254D+00 -.819248410699D-08
     .178578867098D-09  .100000000000D+01  .177200000000D+04  .000000000000D+00
     .240000000000D+01  .000000000000D+00  .558793544769D-08  .980000000000D+02
     .936060000000D+05  .400000000000D+01
26 13 12 23  4  0  0.0  .214629806578D-03 -.105728759081D-10  .000000000000D+00
     .900000000000D+01  .343750000000D+00  .423339062343D-08 -.143899842948D+01
     .374391674995D-06  .212432204280D-01  .769272446632D-05  .515367963409D+04
     .100800000000D+06  .322237610817D-06 -.303462268216D+01  .435858964920D-06
     .977016972427D+00  .236531250000D+03  .125695649662D+01 -.781389690874D-08
    -.310727228751D-09  .100000000000D+01  .177200000000D+04  .000000000000D+00
     .240000000000D+01  .000000000000D+00 -.605359673500D-08  .900000000000D+01
     .936060000000D+05  .400000000000D+01
27 13 12 23  4  0  0.0 -.991486012936D-05 -.261479726760D-11  .000000000000D+00
     .320000000000D+02 -.828437500000D+02  .454518932538D-08 -.396077323810D+00
    -.446476042271D-05  .539993634447D-03  .635161995888D-05  .515367222214D+04
     .100800000000D+06  .186264514923D-07  .824517891908D-02  .447034835815D-07
     .962247990794D+00  .257906250000D+03  .345809594849D+00 -.819069831832D-08
    -.274297139863D-09  .100000000000D+01  .177200000000D+04  .000000000000D+00
     .240000000000D+01  .000000000000D+00  .186264514923D-08  .320000000000D+02
     .936060000000D+05  .400000000000D+01
28 13 12 23  4  0  0.0  .318753998727D-03  .295585778076D-11  .000000000000D+00
     .390000000000D+02  .105625000000D+02  .429375028051D-08  .615002342893D+00
     .618398189545D-06  .192317838082D-01  .488385558128D-05  .515365783310D+04
     .100800000000D+06 -.242143869400D-06 -.975136550694D+00  .149011611938D-07
     .985250025218D+00  .304781250000D+03 -.174367171883D+01 -.843570852398D-08
    -.210723063176D-10  .100000000000D+01  .177200000000D+04  .000000000000D+00
     .240000000000D+01  .000000000000D+00 -.107102096081D-07  .390000000000D+02
     .936060000000D+05  .400000000000D+01
29 13 12 23  4  0  0.0  .497429165989D-03  .306954461848D-11  .000000000000D+00
     .750000000000D+02 -.857187500000D+02  .433446626220D-08  .271038231782D+01
    -.451132655144D-05  .152997486293D-02  .709295272827D-05  .515378451729D+04
     .100800000000D+06 -.931322574615D-08  .617073840745D-01  .428408384323D-07
     .968275445885D+00  .245406250000D+03 -.100353475741D+01 -.799533303771D-08
    -.262153776900D-09  .100000000000D+01  .177200000000D+04  .000000000000D+00
     .240000000000D+01  .000000000000D+00 -.931322574615D-08  .750000000000D+02
     .936060000000D+05  .400000000000D+01
30 13 12 23  4  0  0.0 -.157015863806D-03  .795807864051D-12  .000000000000D+00
     .112000000000D+03  .180625000000D+02  .566202156021D-08  .746985253997D+00
     .113807618618D-05  .641389610246D-02  .444054603577D-05  .515373907852D+04
     .100800000000D+06  .186264514923D-08 -.102266534152D+01  .372529029846D-07
     .979660194757D+00  .302406250000D+03  .853329864523D+00 -.828105922507D-08
     .903609067516D-10  .100000000000D+01  .177200000000D+04  .000000000000D+00
     .240000000000D+01  .630000000000D+02 -.190921127796D-07  .112000000000D+03
     .936060000000D+05  .400000000000D+01
